SL-3 R/B                
1 13403U 82079B   26080.93767368  .00008006  00000+0  31719-3 0  9999
2 13403  81.1490 178.6164 0025467 124.3435 236.0213 15.24963825379567
SL-14 R/B               
1 13553U 82092B   26080.63428176  .00000438  00000+0  46399-4 0  9990
2 13553  82.5672 130.2266 0018772 260.8119 215.2487 14.86676982330700
SL-3 R/B                
1 13819U 83010B   26080.98918699  .00020520  00000+0  40655-3 0  9990
2 13819  81.1058 347.1659 0016771  10.1236 350.0343 15.46764879359841
SL-3 R/B                
1 14208U 83075B   26080.91421932  .00014361  00000+0  37475-3 0  9998
2 14208  97.6142  85.9567 0021468 180.5651 179.5573 15.38693265332039
COSMOS 1536             
1 14699U 84013A   26080.53925673  .00007818  00000+0  32108-3 0  9991
2 14699  82.5413  96.0666 0012695 236.1827 123.8202 15.23973546274421
SL-14 R/B               
1 14820U 84027B   26080.88116247  .00000508  00000+0  55350-4 0  9993
2 14820  82.5401 233.5766 0016593 295.2030  64.7466 14.85988730249443
SL-8 R/B                
1 15483U 85006B   26080.84323396  .00000350  00000+0  12480-3 0  9999
2 15483  74.0439 238.7825 0017946 153.2427 313.8339 14.37792128155775
SL-12 R/B(2)            
1 15772U 85042D   26080.67467993  .00000080  00000+0  57146-4 0  9992
2 15772  71.1072  62.4053 0032901 108.2923  64.0941 14.21985563116097
SL-14 R/B               
1 15945U 85069B   26080.86224260  .00000504  00000+0  54128-4 0  9990
2 15945  82.5301  13.4894 0019554 147.9450 212.2961 14.86446133174643
SL-16 R/B               
1 16182U 85097B   26080.87141880  .00000258  00000+0  15344-3 0  9994
2 16182  71.0013 114.9080 0009571 245.2094 287.4247 14.16601397 88955
SL-14 R/B               
1 16496U 86006B   26080.90347182  .00000776  00000+0  79880-4 0  9991
2 16496  82.5239 248.2386 0075341 231.5421 127.9020 14.86832514151020
COSMOS 1743             
1 16719U 86034A   26080.90148581  .00051000  00000+0  64079-3 0  9991
2 16719  82.5301  61.0033 0002843 196.0719 164.0448 15.59481898182150
